[{"OBJECT_NAME":"GEESAT-2 03","OBJECT_ID":"2024-023C","EPOCH":"2026-03-09T23:27:51.195168","MEAN_MOTION":14.9659792,"ECCENTRICITY":0.00063134,"INCLINATION":50.0004,"RA_OF_ASC_NODE":73.5934,"ARG_OF_PERICENTER":3.6102,"MEAN_ANOMALY":356.4887,"EPHEMERIS_TYPE":0,"CLASSIFICATION_TYPE":"U","NORAD_CAT_ID":58907,"ELEMENT_SET_NO":999,"REV_AT_EPOCH":11446,"BSTAR":0.00027230842,"MEAN_MOTION_DOT":2.885e-5,"MEAN_MOTION_DDOT":0},{"OBJECT_NAME":"STARLINK-34085","OBJECT_ID":"2025-102Q","EPOCH":"2026-03-09T12:22:57.883008","MEAN_MOTION":14.98271093,"ECCENTRICITY":0.00030814,"INCLINATION":70.0007,"RA_OF_ASC_NODE":114.9898,"ARG_OF_PERICENTER":264.0355,"MEAN_ANOMALY":96.0453,"EPHEMERIS_TYPE":0,"CLASSIFICATION_TYPE":"U","NORAD_CAT_ID":64036,"ELEMENT_SET_NO":999,"REV_AT_EPOCH":4592,"BSTAR":0.0056196571,"MEAN_MOTION_DOT":0.00067507,"MEAN_MOTION_DDOT":0}]
